{
    "links": {
        "self": "http://www.neowsapp.com/rest/v1/neo/3552773?api_key=iIulBulltgU6a56xZRHN4H3l9WmuAYTsLGpBGhQ2"
    },
    "id": "3552773",
    "neo_reference_id": "3552773",
    "name": "(2010 XX)",
    "designation": "2010 XX",
    "nasa_jpl_url": "http://ssd.jpl.nasa.gov/sbdb.cgi?sstr=3552773",
    "absolute_magnitude_h": 27.2,
    "estimated_diameter": {
        "kilometers": {
            "estimated_diameter_min": 0.0096506147,
            "estimated_diameter_max": 0.0215794305
        },
        "meters": {
            "estimated_diameter_min": 9.6506146958,
            "estimated_diameter_max": 21.5794304844
        },
        "miles": {
            "estimated_diameter_min": 0.0059966121,
            "estimated_diameter_max": 0.0134088323
        },
        "feet": {
            "estimated_diameter_min": 31.6621227185,
            "estimated_diameter_max": 70.7986587106
        }
    },
    "is_potentially_hazardous_asteroid": false,
    "close_approach_data": [
        {
            "close_approach_date": "2007-01-17",
            "close_approach_date_full": "2007-Jan-17 05:39",
            "epoch_date_close_approach": 1169012340000,
            "relative_velocity": {
                "kilometers_per_second": "23.7122205812",
                "kilometers_per_hour": "85363.994092145",
                "miles_per_hour": "53041.8662179776"
            },
            "miss_distance": {
                "astronomical": "0.492074698",
                "lunar": "191.417057522",
                "kilometers": "73613326.70169326",
                "miles": "45741200.164796588"
            },
            "orbiting_body": "Earth"
        },
        {
            "close_approach_date": "2010-12-01",
            "close_approach_date_full": "2010-Dec-01 09:10",
            "epoch_date_close_approach": 1291194600000,
            "relative_velocity": {
                "kilometers_per_second": "8.4614187676",
                "kilometers_per_hour": "30461.1075632271",
                "miles_per_hour": "18927.3476411618"
            },
            "miss_distance": {
                "astronomical": "0.0095684564",
                "lunar": "3.7221295396",
                "kilometers": "1431420.696627868",
                "miles": "889443.5768378584"
            },
            "orbiting_body": "Earth"
        }
    ],
    "orbital_data": {
        "orbit_id": "10",
        "orbit_determination_date": "2017-04-06 08:55:26",
        "first_observation_date": "2010-12-02",
        "last_observation_date": "2010-12-10",
        "data_arc_in_days": 8,
        "observations_used": 38,
        "orbit_uncertainty": "7",
        "minimum_orbit_intersection": ".00257723",
        "jupiter_tisserand_invariant": "3.184",
        "epoch_osculation": "2459000.5",
        "eccentricity": ".607144476846173",
        "semi_major_axis": "2.497366562822973",
        "inclination": "1.785189831606592",
        "ascending_node_longitude": "249.6615265406453",
        "orbital_period": "1441.523961797201",
        "perihelion_distance": ".9811042475446936",
        "perihelion_argument": "165.2459316190905",
        "aphelion_distance": "4.013628878101252",
        "perihelion_time": "2458410.258058986069",
        "mean_anomaly": "147.4044860829781",
        "mean_motion": ".2497357030064035",
        "equinox": "J2000",
        "orbit_class": {
            "orbit_class_type": "APO",
            "orbit_class_description": "Near-Earth asteroid orbits which cross the Earth’s orbit similar to that of 1862 Apollo",
            "orbit_class_range": "a (semi-major axis) > 1.0 AU; q (perihelion) < 1.017 AU"
        }
    },
    "is_sentry_object": false
}